ATLAS CENTAUR 2         
1 00694U 63047A   26043.16514132  .00001397  00000+0  15606-3 0  9997
2 00694  30.3577 338.2789 0548109 215.3748 140.9288 14.11996118128018
THOR AGENA D R/B        
1 00733U 64002A   26043.47341581  .00000289  00000+0  12031-3 0  9991
2 00733  99.1230  55.4374 0032481 333.5639  26.3886 14.34004620234687
SL-3 R/B                
1 00877U 64053B   26043.37103446  .00000418  00000+0  10519-3 0  9994
2 00877  65.0766  45.4627 0078537 300.2488  59.0854 14.61341190263098
SL-8 R/B                
1 02802U 67045B   26043.38523623  .00000396  00000+0  11702-3 0  9992
2 02802  74.0105  35.3437 0063227  47.9100 312.7410 14.45596704 85362
SL-8 R/B                
1 03230U 68040B   26043.35216608  .00004289  00000+0  31901-3 0  9991
2 03230  74.0320   5.4547 0025074 196.7565 163.2798 15.03064424 86209
OAO 2                   
1 03597U 68110A   26043.32651715  .00000298  00000+0  85367-4 0  9996
2 03597  34.9942  46.8278 0005560 348.3908  11.6654 14.47292257 15421
ISIS 1                  
1 03669U 69009A   26043.22837575  .00000323  00000+0  21591-3 0  9990
2 03669  88.4555 158.0827 1707848 140.5337 233.3557 11.30404653345658
SERT 2                  
1 04327U 70009A   26043.45152780  .00000015  00000+0  77228-4 0  9994
2 04327  99.2724 347.9308 0004116 223.0396 248.8987 13.58727390776463
SL-3 R/B                
1 05118U 71028B   26043.44819649  .00035857  00000+0  45477-3 0  9990
2 05118  81.2342  83.1612 0017102  23.6627 336.5408 15.59090311984739
ASTEX 1                 
1 05560U 71089A   26043.23279957  .00000641  00000+0  16312-3 0  9996
2 05560  92.7150 143.5240 0016241 162.8169 197.3590 14.50740249858616
SL-8 R/B                
1 05730U 71119B   26043.46279156  .00014324  00000+0  74262-3 0  9996
2 05730  73.8847 222.8441 0553286 194.6626 163.7914 14.37066731651865
OAO 3 (COPERNICUS)      
1 06153U 72065A   26043.51830441  .00000412  00000+0  88859-4 0  9994
2 06153  35.0056  80.7220 0007039 311.4727 200.0335 14.59975368842519
