CCSDS_OMM_VERS = 2.0
CREATION_DATE  = 
ORIGINATOR     = 

OBJECT_NAME    = ATLAS CENTAUR 2
OBJECT_ID      = 1963-047A
CENTER_NAME    = EARTH
REF_FRAME      = TEME
TIME_SYSTEM    = UTC
MEAN_ELEMENT_THEORY = SGP/SGP4

EPOCH          = 2026-02-12T03:57:48.210048
MEAN_MOTION    = 14.11996118
ECCENTRICITY   = .05481092
INCLINATION    = 30.3577
RA_OF_ASC_NODE = 338.2789
ARG_OF_PERICENTER = 215.3748
MEAN_ANOMALY   = 140.9288

EPHEMERIS_TYPE = 0
CLASSIFICATION_TYPE = U
NORAD_CAT_ID   = 694
ELEMENT_SET_NO = 999
REV_AT_EPOCH   = 12801
BSTAR          = .15605977E-3
MEAN_MOTION_DOT = .1397E-4
MEAN_MOTION_DDOT = 0

CCSDS_OMM_VERS = 2.0
CREATION_DATE  = 
ORIGINATOR     = 

OBJECT_NAME    = THOR AGENA D R/B
OBJECT_ID      = 1964-002A
CENTER_NAME    = EARTH
REF_FRAME      = TEME
TIME_SYSTEM    = UTC
MEAN_ELEMENT_THEORY = SGP/SGP4

EPOCH          = 2026-02-12T11:21:43.125984
MEAN_MOTION    = 14.34004620
ECCENTRICITY   = .0032481
INCLINATION    = 99.1230
RA_OF_ASC_NODE = 55.4374
ARG_OF_PERICENTER = 333.5639
MEAN_ANOMALY   = 26.3886

EPHEMERIS_TYPE = 0
CLASSIFICATION_TYPE = U
NORAD_CAT_ID   = 733
ELEMENT_SET_NO = 999
REV_AT_EPOCH   = 23468
BSTAR          = .12031E-3
MEAN_MOTION_DOT = .289E-5
MEAN_MOTION_DDOT = 0

CCSDS_OMM_VERS = 2.0
CREATION_DATE  = 
ORIGINATOR     = 

OBJECT_NAME    = SL-3 R/B
OBJECT_ID      = 1964-053B
CENTER_NAME    = EARTH
REF_FRAME      = TEME
TIME_SYSTEM    = UTC
MEAN_ELEMENT_THEORY = SGP/SGP4

EPOCH          = 2026-02-12T08:54:17.377344
MEAN_MOTION    = 14.61341190
ECCENTRICITY   = .0078537
INCLINATION    = 65.0766
RA_OF_ASC_NODE = 45.4627
ARG_OF_PERICENTER = 300.2488
MEAN_ANOMALY   = 59.0854

EPHEMERIS_TYPE = 0
CLASSIFICATION_TYPE = U
NORAD_CAT_ID   = 877
ELEMENT_SET_NO = 999
REV_AT_EPOCH   = 26309
BSTAR          = .10519E-3
MEAN_MOTION_DOT = .418E-5
MEAN_MOTION_DDOT = 0

CCSDS_OMM_VERS = 2.0
CREATION_DATE  = 
ORIGINATOR     = 

OBJECT_NAME    = SL-8 R/B
OBJECT_ID      = 1967-045B
CENTER_NAME    = EARTH
REF_FRAME      = TEME
TIME_SYSTEM    = UTC
MEAN_ELEMENT_THEORY = SGP/SGP4

EPOCH          = 2026-02-12T09:14:44.410272
MEAN_MOTION    = 14.45596704
ECCENTRICITY   = .0063227
INCLINATION    = 74.0105
RA_OF_ASC_NODE = 35.3437
ARG_OF_PERICENTER = 47.9100
MEAN_ANOMALY   = 312.7410

EPHEMERIS_TYPE = 0
CLASSIFICATION_TYPE = U
NORAD_CAT_ID   = 2802
ELEMENT_SET_NO = 999
REV_AT_EPOCH   = 8536
BSTAR          = .11702E-3
MEAN_MOTION_DOT = .396E-5
MEAN_MOTION_DDOT = 0

CCSDS_OMM_VERS = 2.0
CREATION_DATE  = 
ORIGINATOR     = 

OBJECT_NAME    = SL-8 R/B
OBJECT_ID      = 1968-040B
CENTER_NAME    = EARTH
REF_FRAME      = TEME
TIME_SYSTEM    = UTC
MEAN_ELEMENT_THEORY = SGP/SGP4

EPOCH          = 2026-02-12T08:27:07.149312
MEAN_MOTION    = 15.03064424
ECCENTRICITY   = .0025074
INCLINATION    = 74.0320
RA_OF_ASC_NODE = 5.4547
ARG_OF_PERICENTER = 196.7565
MEAN_ANOMALY   = 163.2798

EPHEMERIS_TYPE = 0
CLASSIFICATION_TYPE = U
NORAD_CAT_ID   = 3230
ELEMENT_SET_NO = 999
REV_AT_EPOCH   = 8620
BSTAR          = .31901E-3
MEAN_MOTION_DOT = .4289E-4
MEAN_MOTION_DDOT = 0

CCSDS_OMM_VERS = 2.0
CREATION_DATE  = 
ORIGINATOR     = 

OBJECT_NAME    = OAO 2
OBJECT_ID      = 1968-110A
CENTER_NAME    = EARTH
REF_FRAME      = TEME
TIME_SYSTEM    = UTC
MEAN_ELEMENT_THEORY = SGP/SGP4

EPOCH          = 2026-02-12T07:50:11.081760
MEAN_MOTION    = 14.47292257
ECCENTRICITY   = .000556
INCLINATION    = 34.9942
RA_OF_ASC_NODE = 46.8278
ARG_OF_PERICENTER = 348.3908
MEAN_ANOMALY   = 11.6654

EPHEMERIS_TYPE = 0
CLASSIFICATION_TYPE = U
NORAD_CAT_ID   = 3597
ELEMENT_SET_NO = 999
REV_AT_EPOCH   = 1542
BSTAR          = .85367E-4
MEAN_MOTION_DOT = .298E-5
MEAN_MOTION_DDOT = 0

CCSDS_OMM_VERS = 2.0
CREATION_DATE  = 
ORIGINATOR     = 

OBJECT_NAME    = ISIS 1
OBJECT_ID      = 1969-009A
CENTER_NAME    = EARTH
REF_FRAME      = TEME
TIME_SYSTEM    = UTC
MEAN_ELEMENT_THEORY = SGP/SGP4

EPOCH          = 2026-02-12T05:28:51.664800
MEAN_MOTION    = 11.30404653
ECCENTRICITY   = .1707848
INCLINATION    = 88.4555
RA_OF_ASC_NODE = 158.0827
ARG_OF_PERICENTER = 140.5337
MEAN_ANOMALY   = 233.3557

EPHEMERIS_TYPE = 0
CLASSIFICATION_TYPE = U
NORAD_CAT_ID   = 3669
ELEMENT_SET_NO = 999
REV_AT_EPOCH   = 34565
BSTAR          = .21591E-3
MEAN_MOTION_DOT = .323E-5
MEAN_MOTION_DDOT = 0

CCSDS_OMM_VERS = 2.0
CREATION_DATE  = 
ORIGINATOR     = 

OBJECT_NAME    = SERT 2
OBJECT_ID      = 1970-009A
CENTER_NAME    = EARTH
REF_FRAME      = TEME
TIME_SYSTEM    = UTC
MEAN_ELEMENT_THEORY = SGP/SGP4

EPOCH          = 2026-02-12T10:50:12.001920
MEAN_MOTION    = 13.58727390
ECCENTRICITY   = .0004116
INCLINATION    = 99.2724
RA_OF_ASC_NODE = 347.9308
ARG_OF_PERICENTER = 223.0396
MEAN_ANOMALY   = 248.8987

EPHEMERIS_TYPE = 0
CLASSIFICATION_TYPE = U
NORAD_CAT_ID   = 4327
ELEMENT_SET_NO = 999
REV_AT_EPOCH   = 77646
BSTAR          = .77228E-4
MEAN_MOTION_DOT = .15E-6
MEAN_MOTION_DDOT = 0

CCSDS_OMM_VERS = 2.0
CREATION_DATE  = 
ORIGINATOR     = 

OBJECT_NAME    = SL-3 R/B
OBJECT_ID      = 1971-028B
CENTER_NAME    = EARTH
REF_FRAME      = TEME
TIME_SYSTEM    = UTC
MEAN_ELEMENT_THEORY = SGP/SGP4

EPOCH          = 2026-02-12T10:45:24.176736
MEAN_MOTION    = 15.59090311
ECCENTRICITY   = .0017102
INCLINATION    = 81.2342
RA_OF_ASC_NODE = 83.1612
ARG_OF_PERICENTER = 23.6627
MEAN_ANOMALY   = 336.5408

EPHEMERIS_TYPE = 0
CLASSIFICATION_TYPE = U
NORAD_CAT_ID   = 5118
ELEMENT_SET_NO = 999
REV_AT_EPOCH   = 98473
BSTAR          = .45477E-3
MEAN_MOTION_DOT = .35857E-3
MEAN_MOTION_DDOT = 0

CCSDS_OMM_VERS = 2.0
CREATION_DATE  = 
ORIGINATOR     = 

OBJECT_NAME    = ASTEX 1
OBJECT_ID      = 1971-089A
CENTER_NAME    = EARTH
REF_FRAME      = TEME
TIME_SYSTEM    = UTC
MEAN_ELEMENT_THEORY = SGP/SGP4

EPOCH          = 2026-02-12T05:35:13.882848
MEAN_MOTION    = 14.50740249
ECCENTRICITY   = .0016241
INCLINATION    = 92.7150
RA_OF_ASC_NODE = 143.5240
ARG_OF_PERICENTER = 162.8169
MEAN_ANOMALY   = 197.3590

EPHEMERIS_TYPE = 0
CLASSIFICATION_TYPE = U
NORAD_CAT_ID   = 5560
ELEMENT_SET_NO = 999
REV_AT_EPOCH   = 85861
BSTAR          = .16312E-3
MEAN_MOTION_DOT = .641E-5
MEAN_MOTION_DDOT = 0

CCSDS_OMM_VERS = 2.0
CREATION_DATE  = 
ORIGINATOR     = 

OBJECT_NAME    = SL-8 R/B
OBJECT_ID      = 1971-119B
CENTER_NAME    = EARTH
REF_FRAME      = TEME
TIME_SYSTEM    = UTC
MEAN_ELEMENT_THEORY = SGP/SGP4

EPOCH          = 2026-02-12T11:06:25.190784
MEAN_MOTION    = 14.37066731
ECCENTRICITY   = .0553286
INCLINATION    = 73.8847
RA_OF_ASC_NODE = 222.8441
ARG_OF_PERICENTER = 194.6626
MEAN_ANOMALY   = 163.7914

EPHEMERIS_TYPE = 0
CLASSIFICATION_TYPE = U
NORAD_CAT_ID   = 5730
ELEMENT_SET_NO = 999
REV_AT_EPOCH   = 65186
BSTAR          = .74262E-3
MEAN_MOTION_DOT = .14324E-3
MEAN_MOTION_DDOT = 0

CCSDS_OMM_VERS = 2.0
CREATION_DATE  = 
ORIGINATOR     = 

OBJECT_NAME    = OAO 3 (COPERNICUS)
OBJECT_ID      = 1972-065A
CENTER_NAME    = EARTH
REF_FRAME      = TEME
TIME_SYSTEM    = UTC
MEAN_ELEMENT_THEORY = SGP/SGP4

EPOCH          = 2026-02-12T12:26:21.501024
MEAN_MOTION    = 14.59975368
ECCENTRICITY   = .0007039
INCLINATION    = 35.0056
RA_OF_ASC_NODE = 80.7220
ARG_OF_PERICENTER = 311.4727
MEAN_ANOMALY   = 200.0335

EPHEMERIS_TYPE = 0
CLASSIFICATION_TYPE = U
NORAD_CAT_ID   = 6153
ELEMENT_SET_NO = 999
REV_AT_EPOCH   = 84251
BSTAR          = .88859E-4
MEAN_MOTION_DOT = .412E-5
MEAN_MOTION_DDOT = 0

